{
  "type": "FeatureCollection",
  "max_time_minutes": 360,
  "source": "sample",
  "ignition_point": [-120.5, 38.9],
  "features": [
    {
      "type": "Feature",
      "properties": { "time_minutes": 60, "time_seconds": 3600, "time_label": "1h 00m" },
      "geometry": {
        "type": "Polygon",
        "coordinates": [[
          [-120.518, 38.907], [-120.512, 38.913], [-120.500, 38.916],
          [-120.488, 38.913], [-120.482, 38.907], [-120.482, 38.893],
          [-120.488, 38.887], [-120.500, 38.884], [-120.512, 38.887],
          [-120.518, 38.893], [-120.518, 38.907]
        ]]
      }
    },
    {
      "type": "Feature",
      "properties": { "time_minutes": 120, "time_seconds": 7200, "time_label": "2h 00m" },
      "geometry": {
        "type": "Polygon",
        "coordinates": [[
          [-120.532, 38.914], [-120.518, 38.926], [-120.500, 38.930],
          [-120.482, 38.926], [-120.468, 38.914], [-120.465, 38.900],
          [-120.468, 38.886], [-120.482, 38.874], [-120.500, 38.870],
          [-120.518, 38.874], [-120.532, 38.886], [-120.535, 38.900],
          [-120.532, 38.914]
        ]]
      }
    },
    {
      "type": "Feature",
      "properties": { "time_minutes": 180, "time_seconds": 10800, "time_label": "3h 00m" },
      "geometry": {
        "type": "Polygon",
        "coordinates": [[
          [-120.548, 38.922], [-120.530, 38.940], [-120.510, 38.947],
          [-120.490, 38.947], [-120.470, 38.940], [-120.452, 38.925],
          [-120.445, 38.908], [-120.446, 38.892], [-120.454, 38.876],
          [-120.470, 38.862], [-120.490, 38.856], [-120.510, 38.855],
          [-120.530, 38.862], [-120.548, 38.876], [-120.555, 38.894],
          [-120.555, 38.908], [-120.548, 38.922]
        ]]
      }
    },
    {
      "type": "Feature",
      "properties": { "time_minutes": 240, "time_seconds": 14400, "time_label": "4h 00m" },
      "geometry": {
        "type": "Polygon",
        "coordinates": [[
          [-120.568, 38.932], [-120.548, 38.954], [-120.524, 38.964],
          [-120.500, 38.966], [-120.476, 38.964], [-120.452, 38.952],
          [-120.434, 38.934], [-120.426, 38.914], [-120.426, 38.894],
          [-120.434, 38.874], [-120.452, 38.856], [-120.476, 38.844],
          [-120.500, 38.840], [-120.524, 38.843], [-120.548, 38.854],
          [-120.566, 38.872], [-120.572, 38.893], [-120.572, 38.913],
          [-120.568, 38.932]
        ]]
      }
    },
    {
      "type": "Feature",
      "properties": { "time_minutes": 300, "time_seconds": 18000, "time_label": "5h 00m" },
      "geometry": {
        "type": "Polygon",
        "coordinates": [[
          [-120.592, 38.944], [-120.568, 38.970], [-120.540, 38.982],
          [-120.514, 38.986], [-120.488, 38.986], [-120.460, 38.978],
          [-120.434, 38.962], [-120.414, 38.942], [-120.406, 38.916],
          [-120.405, 38.890], [-120.414, 38.866], [-120.434, 38.846],
          [-120.460, 38.830], [-120.488, 38.822], [-120.514, 38.820],
          [-120.540, 38.824], [-120.568, 38.838], [-120.588, 38.858],
          [-120.596, 38.882], [-120.597, 38.908], [-120.592, 38.944]
        ]]
      }
    },
    {
      "type": "Feature",
      "properties": { "time_minutes": 360, "time_seconds": 21600, "time_label": "6h 00m" },
      "geometry": {
        "type": "Polygon",
        "coordinates": [[
          [-120.618, 38.957], [-120.590, 38.986], [-120.560, 39.000],
          [-120.530, 39.006], [-120.500, 39.008], [-120.470, 39.006],
          [-120.440, 38.998], [-120.412, 38.982], [-120.390, 38.960],
          [-120.378, 38.934], [-120.376, 38.906], [-120.382, 38.878],
          [-120.396, 38.852], [-120.418, 38.830], [-120.446, 38.814],
          [-120.474, 38.805], [-120.502, 38.803], [-120.530, 38.806],
          [-120.558, 38.816], [-120.582, 38.834], [-120.600, 38.858],
          [-120.612, 38.884], [-120.617, 38.912], [-120.618, 38.957]
        ]]
      }
    }
  ]
}
